[
    {
        "Altitude(m)": 605459.0668108314,
        "Argument of Periapsis(deg)": 0.0,
        "Eccentricity": 0.0,
        "Inclination(deg)": 60.0,
        "Latitude(deg)": 27.988337426638783,
        "Longitude(deg)": 87.79857387622089,
        "Mean Anomaly(deg)": 32.72730000000001,
        "RAAN(deg)": 170.00000000000003,
        "Satellite Name": "Test1 750",
        "Satellite Number": 750,
        "Semi-Major Axis(m)": 6980739.136638005,
        "Time(s)": 0
    },
    {
        "Altitude(m)": 605535.8583239735,
        "Argument of Periapsis(deg)": 0.00010418945913296404,
        "Eccentricity": 0.0,
        "Inclination(deg)": 60.0,
        "Latitude(deg)": 28.501467050982317,
        "Longitude(deg)": 88.15551913082273,
        "Mean Anomaly(deg)": 33.34740614546182,
        "RAAN(deg)": 169.99957995086027,
        "Satellite Name": "Test1 750",
        "Satellite Number": 750,
        "Semi-Major Axis(m)": 6980739.136638005,
        "Time(s)": 10
    }
]